{
    "links": {
        "self": "http://www.neowsapp.com/rest/v1/neo/3843901?api_key=iIulBulltgU6a56xZRHN4H3l9WmuAYTsLGpBGhQ2"
    },
    "id": "3843901",
    "neo_reference_id": "3843901",
    "name": "(2019 SZ)",
    "designation": "2019 SZ",
    "nasa_jpl_url": "http://ssd.jpl.nasa.gov/sbdb.cgi?sstr=3843901",
    "absolute_magnitude_h": 20.8,
    "estimated_diameter": {
        "kilometers": {
            "estimated_diameter_min": 0.1838886721,
            "estimated_diameter_max": 0.411187571
        },
        "meters": {
            "estimated_diameter_min": 183.8886720703,
            "estimated_diameter_max": 411.1875710413
        },
        "miles": {
            "estimated_diameter_min": 0.1142630881,
            "estimated_diameter_max": 0.2555000322
        },
        "feet": {
            "estimated_diameter_min": 603.309310875,
            "estimated_diameter_max": 1349.040630575
        }
    },
    "is_potentially_hazardous_asteroid": false,
    "close_approach_data": [
        {
            "close_approach_date": "2019-09-13",
            "close_approach_date_full": "2019-Sep-13 10:21",
            "epoch_date_close_approach": 1568370060000,
            "relative_velocity": {
                "kilometers_per_second": "12.1742416997",
                "kilometers_per_hour": "43827.2701189078",
                "miles_per_hour": "27232.5612580513"
            },
            "miss_distance": {
                "astronomical": "0.2645455805",
                "lunar": "102.9082308145",
                "kilometers": "39575455.360713535",
                "miles": "24591047.659115383"
            },
            "orbiting_body": "Earth"
        }
    ],
    "orbital_data": {
        "orbit_id": "14",
        "orbit_determination_date": "2019-11-07 01:46:43",
        "first_observation_date": "2019-09-18",
        "last_observation_date": "2019-10-25",
        "data_arc_in_days": 37,
        "observations_used": 126,
        "orbit_uncertainty": "6",
        "minimum_orbit_intersection": ".252537",
        "jupiter_tisserand_invariant": "3.121",
        "epoch_osculation": "2459000.5",
        "eccentricity": ".547703569652638",
        "semi_major_axis": "2.569674044800457",
        "inclination": "21.21292257744735",
        "ascending_node_longitude": "10.14288993761328",
        "orbital_period": "1504.580690063772",
        "perihelion_distance": "1.162254397619514",
        "perihelion_argument": "310.7117773546288",
        "aphelion_distance": "3.9770936919814",
        "perihelion_time": "2458705.737966394203",
        "mean_anomaly": "70.52751161759846",
        "mean_motion": ".2392693209326921",
        "equinox": "J2000",
        "orbit_class": {
            "orbit_class_type": "AMO",
            "orbit_class_description": "Near-Earth asteroid orbits similar to that of 1221 Amor",
            "orbit_class_range": "1.017 AU < q (perihelion) < 1.3 AU"
        }
    },
    "is_sentry_object": false
}